H1 CPF 01  gfz 2022 10 25 12  7982 tandemx   
H2 1003001  6202 36605    2022 10 25 12 59 42 2022 10 30 00 00 42   120 1 1  0 0 0
H9
10 0 59879  72702.000000  0     244277.759  -1205621.488   6766666.446
10 0 59879  72822.000000  0    -533888.853   -716806.222   6819111.330
10 0 59879  72942.000000  0   -1293956.968   -202022.869   6751728.776
10 0 59879  73062.000000  0   -2022292.043    329310.343   6565694.133
10 0 59879  73182.000000  0   -2705976.450    867252.372   6264254.702
10 0 59879  73302.000000  0   -3333039.031   1401524.354   5852676.917
10 0 59879  73422.000000  0   -3892667.146   1921705.120   5338160.417
10 0 59879  73542.000000  0   -4375398.246   2417434.664   4729718.889
10 0 59879  73662.000000  0   -4773286.743   2878621.926   4038027.294
10 0 59879  73782.000000  0   -5080041.204   3295651.309   3275237.353
10 0 59879  73902.000000  0   -5291130.157   3659584.607   2454765.915
10 0 59879  74022.000000  0   -5403854.018   3962354.125   1591058.100
10 0 59879  74142.000000  0   -5417380.915   4196941.505    699327.984
10 0 59879  74262.000000  0   -5332743.466   4357536.612   -204717.117
10 0 59879  74382.000000  0   -5152798.222   4439673.248  -1105161.157
10 0 59879  74502.000000  0   -4882148.584   4440338.873  -1986169.245
10 0 59879  74622.000000  0   -4527031.257   4358053.569  -2832275.496
10 0 59879  74742.000000  0   -4095170.754   4192916.497  -3628660.288
10 0 59879  74862.000000  0   -3595606.375   3946620.309  -4361411.661
10 0 59879  74982.000000  0   -3038497.060   3622433.850  -5017765.460
10 0 59879  75102.000000  0   -2434910.423   3225154.337  -5586320.417
10 0 59879  75222.000000  0   -1796600.522   2761031.726  -6057227.958
10 0 59879  75342.000000  0   -1135776.888   2237664.782  -6422352.765
10 0 59879  75462.000000  0    -464871.742   1663872.623  -6675401.027
10 0 59879  75582.000000  0     203690.405   1049545.265  -6812018.078
10 0 59879  75702.000000  0     857716.901    405474.882  -6829855.296
10 0 59879  75822.000000  0    1485464.716   -256830.000  -6728607.429
10 0 59879  75942.000000  0    2075846.510   -925345.867  -6510015.760
10 0 59879  76062.000000  0    2618621.665  -1587746.566  -6177841.444
10 0 59879  76182.000000  0    3104571.757  -2231624.759  -5737807.671
10 0 59879  76302.000000  0    3525657.495  -2844720.017  -5197512.756
10 0 59879  76422.000000  0    3875155.889  -3415152.554  -4566310.030
10 0 59879  76542.000000  0    4147771.052  -3931653.857  -3855155.060
10 0 59879  76662.000000  0    4339719.311  -4383791.144  -3076425.960
10 0 59879  76782.000000  0    4448787.370  -4762182.627  -2243715.446
10 0 59879  76902.000000  0    4474360.263  -5058697.589  -1371596.987
10 0 59879  77022.000000  0    4417416.633  -5266636.241   -475368.617
10 0 59879  77142.000000  0    4280491.670  -5380882.694    429220.108
10 0 59879  77262.000000  0    4067608.433  -5398028.326   1326251.771
10 0 59879  77382.000000  0    3784178.604  -5316460.992   2199930.841
10 0 59879  77502.000000  0    3436874.080  -5136417.020   3034870.355
10 0 59879  77622.000000  0    3033474.612  -4859997.074   3816370.175
10 0 59879  77742.000000  0    2582694.750  -4491143.151   4530681.277
10 0 59879  77862.000000  0    2093995.168  -4035578.831   5165250.435
10 0 59879  77982.000000  0    1577382.513  -3500714.403   5708940.568
10 0 59879  78102.000000  0    1043202.343  -2895518.910   6152223.831
10 0 59879  78222.000000  0     501930.051  -2230363.008   6487342.741
10 0 59879  78342.000000  0     -36035.245  -1516836.606   6708438.994
10 0 59879  78462.000000  0    -560569.577   -767544.700   6811650.271
10 0 59879  78582.000000  0   -1062013.481      4117.074   6795174.192
10 0 59879  78702.000000  0   -1531349.191    784202.018   6659297.547
10 0 59879  78822.000000  0   -1960362.339   1558463.836   6406391.365
10 0 59879  78942.000000  0   -2341786.104   2312615.863   6040872.151
10 0 59879  79062.000000  0   -2669425.263   3032594.775   5569129.562
10 0 59879  79182.000000  0   -2938258.551   3704824.531   4999421.079
10 0 59879  79302.000000  0   -3144518.524   4316476.262   4341733.986
10 0 59879  79422.000000  0   -3285745.693   4855719.069   3607615.036
10 0 59879  79542.000000  0   -3360816.074   5311956.356   2809970.068
10 0 59879  79662.000000  0   -3369940.843   5676041.336   1962836.222
10 0 59879  79782.000000  0   -3314638.560   5940465.862   1081131.524
10 0 59879  79902.000000  0   -3197680.182   6099520.002    180387.406
10 0 59879  80022.000000  0   -3023008.041   6149417.499   -723533.073
10 0 59879  80142.000000  0   -2795631.277   6088381.937  -1614724.778
10 0 59879  80262.000000  0   -2521498.217   5916690.780  -2477531.551
10 0 59879  80382.000000  0   -2207349.602   5636675.443  -3296827.197
10 0 59879  80502.000000  0   -1860559.689   5252683.473  -4058282.689
10 0 59879  80622.000000  0   -1488968.016   4771000.308  -4748616.519
10 0 59879  80742.000000  0   -1100706.632   4199735.092  -5355820.794
10 0 59879  80862.000000  0    -704026.222   3548675.075  -5869362.843
10 0 59879  80982.000000  0    -307124.097   2829109.446  -6280359.202
10 0 59879  81102.000000  0      82021.605   2053626.935  -6581717.624
10 0 59879  81222.000000  0     455807.431   1235894.181  -6768247.831
10 0 59879  81342.000000  0     807148.645    390416.458  -6836742.450
10 0 59879  81462.000000  0    1129609.968   -467715.477  -6786025.964
10 0 59879  81582.000000  0    1417519.961  -1323089.357  -6616971.510
10 0 59879  81702.000000  0    1666068.035  -2160240.454  -6332486.530
10 0 59879  81822.000000  0    1871384.025  -2963923.862  -5937469.097
10 0 59879  81942.000000  0    2030598.579  -3719388.256  -5438734.133
10 0 59879  82062.000000  0    2141883.328  -4412647.815  -4844906.436
10 0 59879  82182.000000  0    2204469.618  -5030742.640  -4166281.206
10 0 59879  82302.000000  0    2218645.898  -5561985.934  -3414656.670
10 0 59879  82422.000000  0    2185733.172  -5996194.065  -2603137.605
10 0 59879  82542.000000  0    2108038.638  -6324893.169  -1745912.111
10 0 59879  82662.000000  0    1988786.903  -6541495.660   -858004.380
10 0 59879  82782.000000  0    1832033.712  -6641442.914     44991.813
10 0 59879  82902.000000  0    1642559.824  -6622306.222    947193.984
10 0 59879  83022.000000  0    1425750.297  -6483848.552   1832717.110
10 0 59879  83142.000000  0    1187460.840  -6228040.607   2685964.612
10 0 59879  83262.000000  0     933874.899  -5859030.442   3491910.928
10 0 59879  83382.000000  0     671355.246  -5383070.976   4236372.272
10 0 59879  83502.000000  0     406294.549  -4808406.265   4906259.586
10 0 59879  83622.000000  0     144967.468  -4145119.457   5489809.918
10 0 59879  83742.000000  0    -106610.664  -3404945.672   5976791.356
10 0 59879  83862.000000  0    -342815.874  -2601054.403   6358677.909
10 0 59879  83982.000000  0    -558536.385  -1747808.728   6628791.173
10 0 59879  84102.000000  0    -749279.250   -860506.186   6782411.107
10 0 59879  84222.000000  0    -911261.333     44897.085   6816854.822
10 0 59879  84342.000000  0   -1041483.344    952074.047   6731520.787
10 0 59879  84462.000000  0   -1137784.842   1844620.860   6527898.363
10 0 59879  84582.000000  0   -1198879.820   2706352.865   6209543.384
10 0 59879  84702.000000  0   -1224373.022   3521598.397   5782020.016
10 0 59879  84822.000000  0   -1214756.243   4275486.035   5252808.688
10 0 59879  84942.000000  0   -1171384.148   4954220.233   4631181.709
10 0 59879  85062.000000  0   -1096431.355   5545341.585   3928045.995
10 0 59879  85182.000000  0    -992829.809   6037963.322   3155754.651
10 0 59879  85302.000000  0    -864190.685   6422982.318   2327893.138
10 0 59879  85422.000000  0    -714708.812   6693258.778   1459036.575
10 0 59879  85542.000000  0    -549052.438   6843755.626    564487.619
10 0 59879  85662.000000  0    -372242.314   6871637.641   -339999.704
10 0 59879  85782.000000  0    -189522.680   6776327.636  -1238506.459
10 0 59879  85902.000000  0      -6227.679   6559514.898  -2115239.587
10 0 59879  86022.000000  0     172352.267   6225116.511  -2954816.346
10 0 59879  86142.000000  0     341101.517   5779196.878  -3742537.909
10 0 59879  86262.000000  0     495205.298   5229846.292  -4464648.046
10 0 59879  86382.000000  0     630267.448   4587021.553  -5108571.060
10 0 59880    102.000000  0     742417.009   3862353.742  -5663124.724
10 0 59880    222.000000  0     828401.020   3068928.037  -6118705.783
10 0 59880    342.000000  0     885661.681   2221040.337  -6467445.465
10 0 59880    462.000000  0     912397.359   1333937.042  -6703333.188
10 0 59880    582.000000  0     907605.698    423542.671  -6822310.163
10 0 59880    702.000000  0     871109.004   -493821.863  -6822331.946
10 0 59880    822.000000  0     803561.009  -1401726.099  -6703398.801
10 0 59880    942.000000  0     706435.264  -2283916.007  -6467554.094
10 0 59880   1062.000000  0     581995.957  -3124596.729  -6118854.548
10 0 59880   1182.000000  0     433250.022  -3908712.507  -5663309.667
10 0 59880   1302.000000  0     263882.237  -4622215.338  -5108787.091
10 0 59880   1422.000000  0      78174.513  -5252318.877  -4464888.420
10 0 59880   1542.000000  0    -119090.549  -5787734.554  -3742794.369
10 0 59880   1662.000000  0    -322739.483  -6218883.814  -2955079.478
10 0 59880   1782.000000  0    -527329.096  -6538081.279  -2115499.837
10 0 59880   1902.000000  0    -727276.468  -6739685.549  -1238755.679
10 0 59880   2022.000000  0    -916994.517  -6820211.226   -340231.928
10 0 59880   2142.000000  0   -1091029.873  -6778398.600    564276.758
10 0 59880   2262.000000  0   -1244199.828  -6615239.597   1458850.581
10 0 59880   2382.000000  0   -1371724.854  -6333958.755   2327733.788
10 0 59880   2502.000000  0   -1469352.653  -5939948.378   3155621.574
10 0 59880   2622.000000  0   -1533470.581  -5440659.930   3927937.832
10 0 59880   2742.000000  0   -1561202.809  -4845454.167   4631096.670
99
